{
  "type": "FeatureCollection",
  "features": [
    {
      "type": "Feature",
      "properties": {
        "norad_id": 44333,
        "name": "AT&T T-16",
        "group": "intelsat",
        "lat": 0.019744514801702893,
        "lon": 76.16992861452184,
        "alt_km": 35786.67853661891,
        "timestamp": "2025-12-03T06:58:42.909268+00:00",
        "meta_object_name": "AT&T T-16",
        "meta_object_id": "2019-034A",
        "meta_epoch": "2025-12-02T13:18:20.280096",
        "meta_mean_motion": 1.00268726,
        "meta_eccentricity": 5.441e-05,
        "meta_inclination": 0.0275,
        "meta_ra_of_asc_node": 65.3397,
        "meta_arg_of_pericenter": 93.9137,
        "meta_mean_anomaly": 11.1366,
        "meta_ephemeris_type": 0,
        "meta_classification_type": "U",
        "meta_norad_cat_id": 44333,
        "meta_element_set_no": 999,
        "meta_rev_at_epoch": 2366,
        "meta_bstar": 0,
        "meta_mean_motion_dot": -9.5e-07,
        "meta_mean_motion_ddot": 0,
        "tle_line1": "1 44333U 19034A   25336.55440139 -.00000095  00000+0  00000+0 0  9997",
        "tle_line2": "2 44333   0.0275  65.3397 0000544  93.9137  11.1366  1.00268726 23668"
      },
      "geometry": {
        "type": "Point",
        "coordinates": [
          76.16992861452184,
          0.019744514801702893
        ]
      }
    },
    {
      "type": "Feature",
      "properties": {
        "norad_id": 44476,
        "name": "INTELSAT 39 (IS-39)",
        "group": "intelsat",
        "lat": -0.039018347386620356,
        "lon": -121.00495460812921,
        "alt_km": 35786.19026297175,
        "timestamp": "2025-12-03T06:58:42.909279+00:00",
        "meta_object_name": "INTELSAT 39 (IS-39)",
        "meta_object_id": "2019-049B",
        "meta_epoch": "2025-12-02T20:14:09.203712",
        "meta_mean_motion": 1.00270042,
        "meta_eccentricity": 9.19e-05,
        "meta_inclination": 0.0161,
        "meta_ra_of_asc_node": 309.7278,
        "meta_arg_of_pericenter": 204.5848,
        "meta_mean_anomaly": 283.1192,
        "meta_ephemeris_type": 0,
        "meta_classification_type": "U",
        "meta_norad_cat_id": 44476,
        "meta_element_set_no": 999,
        "meta_rev_at_epoch": 2315,
        "meta_bstar": 0,
        "meta_mean_motion_dot": 5.3e-07,
        "meta_mean_motion_ddot": 0,
        "tle_line1": "1 44476U 19049B   25336.84316208  .00000053  00000+0  00000+0 0  9995",
        "tle_line2": "2 44476   0.0161 309.7278 0000919 204.5848 283.1192  1.00270042 23154"
      },
      "geometry": {
        "type": "Point",
        "coordinates": [
          -121.00495460812921,
          -0.039018347386620356
        ]
      }
    },
    {
      "type": "Feature",
      "properties": {
        "norad_id": 46114,
        "name": "GALAXY 30 (G-30)",
        "group": "intelsat",
        "lat": 0.033694979718920125,
        "lon": 52.052016799290264,
        "alt_km": 35795.4364367926,
        "timestamp": "2025-12-03T06:58:42.909291+00:00",
        "meta_object_name": "GALAXY 30 (G-30)",
        "meta_object_id": "2020-056C",
        "meta_epoch": "2025-12-02T15:20:38.910336",
        "meta_mean_motion": 1.00272281,
        "meta_eccentricity": 0.0002383,
        "meta_inclination": 0.0122,
        "meta_ra_of_asc_node": 297.5405,
        "meta_arg_of_pericenter": 313.6846,
        "meta_mean_anomaly": 285.6838,
        "meta_ephemeris_type": 0,
        "meta_classification_type": "U",
        "meta_norad_cat_id": 46114,
        "meta_element_set_no": 999,
        "meta_rev_at_epoch": 1932,
        "meta_bstar": 0,
        "meta_mean_motion_dot": 5.7e-07,
        "meta_mean_motion_ddot": 0,
        "tle_line1": "1 46114U 20056C   25336.63933924  .00000057  00000+0  00000+0 0  9997",
        "tle_line2": "2 46114   0.0122 297.5405 0002383 313.6846 285.6838  1.00272281 19320"
      },
      "geometry": {
        "type": "Point",
        "coordinates": [
          52.052016799290264,
          0.033694979718920125
        ]
      }
    },
    {
      "type": "Feature",
      "properties": {
        "norad_id": 54026,
        "name": "GALAXY 33 (G-33)",
        "group": "intelsat",
        "lat": 0.03699735250609555,
        "lon": 44.0548040539767,
        "alt_km": 35793.411247568474,
        "timestamp": "2025-12-03T06:58:42.909302+00:00",
        "meta_object_name": "GALAXY 33 (G-33)",
        "meta_object_id": "2022-128A",
        "meta_epoch": "2025-12-02T16:34:35.368032",
        "meta_mean_motion": 1.00272458,
        "meta_eccentricity": 0.0001946,
        "meta_inclination": 0.0146,
        "meta_ra_of_asc_node": 335.983,
        "meta_arg_of_pericenter": 271.3406,
        "meta_mean_anomaly": 300.1238,
        "meta_ephemeris_type": 0,
        "meta_classification_type": "U",
        "meta_norad_cat_id": 54026,
        "meta_element_set_no": 999,
        "meta_rev_at_epoch": 1177,
        "meta_bstar": 0,
        "meta_mean_motion_dot": 9.9e-07,
        "meta_mean_motion_ddot": 0,
        "tle_line1": "1 54026U 22128A   25336.69068713  .00000099  00000+0  00000+0 0  9997",
        "tle_line2": "2 54026   0.0146 335.9830 0001946 271.3406 300.1238  1.00272458 11776"
      },
      "geometry": {
        "type": "Point",
        "coordinates": [
          44.0548040539767,
          0.03699735250609555
        ]
      }
    },
    {
      "type": "Feature",
      "properties": {
        "norad_id": 54027,
        "name": "GALAXY 34 (G-34)",
        "group": "intelsat",
        "lat": 0.03989977192326065,
        "lon": 48.04815137326847,
        "alt_km": 35791.241478975826,
        "timestamp": "2025-12-03T06:58:42.909314+00:00",
        "meta_object_name": "GALAXY 34 (G-34)",
        "meta_object_id": "2022-128B",
        "meta_epoch": "2025-12-02T16:35:42.760032",
        "meta_mean_motion": 1.00273185,
        "meta_eccentricity": 0.0001407,
        "meta_inclination": 0.0155,
        "meta_ra_of_asc_node": 325.4704,
        "meta_arg_of_pericenter": 282.5721,
        "meta_mean_anomaly": 303.6816,
        "meta_ephemeris_type": 0,
        "meta_classification_type": "U",
        "meta_norad_cat_id": 54027,
        "meta_element_set_no": 999,
        "meta_rev_at_epoch": 1194,
        "meta_bstar": 0,
        "meta_mean_motion_dot": 7.9e-07,
        "meta_mean_motion_ddot": 0,
        "tle_line1": "1 54027U 22128B   25336.69146713  .00000079  00000+0  00000+0 0  9993",
        "tle_line2": "2 54027   0.0155 325.4704 0001407 282.5721 303.6816  1.00273185 11944"
      },
      "geometry": {
        "type": "Point",
        "coordinates": [
          48.04815137326847,
          0.03989977192326065
        ]
      }
    },
    {
      "type": "Feature",
      "properties": {
        "norad_id": 54243,
        "name": "GALAXY 31 (G-31)",
        "group": "intelsat",
        "lat": 0.03499230489459315,
        "lon": 56.02614420340649,
        "alt_km": 35793.64288625946,
        "timestamp": "2025-12-03T06:58:42.909339+00:00",
        "meta_object_name": "GALAXY 31 (G-31)",
        "meta_object_id": "2022-153A",
        "meta_epoch": "2025-12-02T16:38:05.034048",
        "meta_mean_motion": 1.00271683,
        "meta_eccentricity": 0.0002072,
        "meta_inclination": 0.0122,
        "meta_ra_of_asc_node": 340.0695,
        "meta_arg_of_pericenter": 286.4863,
        "meta_mean_anomaly": 293.7375,
        "meta_ephemeris_type": 0,
        "meta_classification_type": "U",
        "meta_norad_cat_id": 54243,
        "meta_element_set_no": 999,
        "meta_rev_at_epoch": 516,
        "meta_bstar": 0,
        "meta_mean_motion_dot": 0,
        "meta_mean_motion_ddot": 0,
        "tle_line1": "1 54243U 22153A   25336.69311382  .00000000  00000+0  00000+0 0  9991",
        "tle_line2": "2 54243   0.0122 340.0695 0002072 286.4863 293.7375  1.00271683  5166"
      },
      "geometry": {
        "type": "Point",
        "coordinates": [
          56.02614420340649,
          0.03499230489459315
        ]
      }
    },
    {
      "type": "Feature",
      "properties": {
        "norad_id": 54244,
        "name": "GALAXY 32 (G-32)",
        "group": "intelsat",
        "lat": 0.02702664192930163,
        "lon": 86.05587007140721,
        "alt_km": 35794.64580644402,
        "timestamp": "2025-12-03T06:58:42.909352+00:00",
        "meta_object_name": "GALAXY 32 (G-32)",
        "meta_object_id": "2022-153B",
        "meta_epoch": "2025-12-02T11:10:37.032960",
        "meta_mean_motion": 1.0027048,
        "meta_eccentricity": 0.00024642,
        "meta_inclination": 0.01,
        "meta_ra_of_asc_node": 320.0818,
        "meta_arg_of_pericenter": 344.284,
        "meta_mean_anomaly": 203.865,
        "meta_ephemeris_type": 0,
        "meta_classification_type": "U",
        "meta_norad_cat_id": 54244,
        "meta_element_set_no": 999,
        "meta_rev_at_epoch": 1117,
        "meta_bstar": 0,
        "meta_mean_motion_dot": -1.54e-06,
        "meta_mean_motion_ddot": 0,
        "tle_line1": "1 54244U 22153B   25336.46570640 -.00000154  00000+0  00000+0 0  9992",
        "tle_line2": "2 54244   0.0100 320.0818 0002464 344.2840 203.8650  1.00270480 11171"
      },
      "geometry": {
        "type": "Point",
        "coordinates": [
          86.05587007140721,
          0.02702664192930163
        ]
      }
    }
  ]
}